start=new Date('2023-03-27T00:00:00.000Z').valueOf();
sats=[{"REF_FRAME":"TEME","SEMIMAJOR_AXIS":"6737.234","APOAPSIS":"361.156","BSTAR":"0.00004841400000","RA_OF_ASC_NODE":"242.5169","ECCENTRICITY":"0.00030540","MEAN_MOTION":"15.69930247","TLE_LINE2":"2 55314  70.0012 242.5169 0003054 264.7937  95.2910 15.69930247 12105","ELEMENT_SET_NO":"999","LAUNCH_DATE":"2023-01-19","COUNTRY_CODE":"US","MEAN_MOTION_DDOT":"0.0000000000000","NORAD_CAT_ID":"55314","INCLINATION":"70.0012","FILE":"3871964","PERIAPSIS":"357.041","CLASSIFICATION_TYPE":"U","TIME_SYSTEM":"UTC","OBJECT_TYPE":"PAYLOAD","ARG_OF_PERICENTER":"264.7937","TLE_LINE1":"1 55314U 23010AX  23085.82380230  .00005614  00000-0  48414-4 0  9999","OBJECT_NAME":"STARLINK-5305","PERIOD":"91.724","MEAN_ELEMENT_THEORY":"SGP4","CENTER_NAME":"EARTH","EPHEMERIS_TYPE":"0","MEAN_MOTION_DOT":"0.00005614","OBJECT_ID":"2023-010AX","MEAN_ANOMALY":"95.2910","SITE":"AFWTR","DECAY_DATE":null,"EPOCH":"2023-03-26T19:46:16.518720","RCS_SIZE":"LARGE","GP_ID":"228920857","REV_AT_EPOCH":"1210"},{"COUNTRY_CODE":"US","MEAN_MOTION_DDOT":"0.0000000000000","LAUNCH_DATE":"2023-01-19","ELEMENT_SET_NO":"999","TLE_LINE2":"2 55315  70.0001 242.5275 0003711 270.6853  89.3917 15.69963188 11217","MEAN_MOTION":"15.69963188","ECCENTRICITY":"0.00037110","RA_OF_ASC_NODE":"242.5275","BSTAR":"-0.00004117900000","APOAPSIS":"361.504","REF_FRAME":"TEME","SEMIMAJOR_AXIS":"6737.139","TLE_LINE1":"1 55315U 23010AY  23085.82599918 -.00005170  00000-0 -41179-4 0  9995","OBJECT_NAME":"STARLINK-4623","OBJECT_TYPE":"PAYLOAD","ARG_OF_PERICENTER":"270.6853","CLASSIFICATION_TYPE":"U","TIME_SYSTEM":"UTC","PERIAPSIS":"356.504","FILE":"3871964","INCLINATION":"70.0001","NORAD_CAT_ID":"55315","OBJECT_ID":"2023-010AY","MEAN_MOTION_DOT":"-0.00005170","EPHEMERIS_TYPE":"0","CENTER_NAME":"EARTH","MEAN_ELEMENT_THEORY":"SGP4","PERIOD":"91.722","REV_AT_EPOCH":"1121","GP_ID":"228921107","RCS_SIZE":"LARGE","EPOCH":"2023-03-26T19:49:26.329152","DECAY_DATE":null,"SITE":"AFWTR","MEAN_ANOMALY":"89.3917"},{"MEAN_MOTION_DOT":"0.00000631","OBJECT_ID":"2023-010AZ","PERIOD":"91.724","MEAN_ELEMENT_THEORY":"SGP4","CENTER_NAME":"EARTH","EPHEMERIS_TYPE":"0","GP_ID":"228921358","REV_AT_EPOCH":"1210","SITE":"AFWTR","MEAN_ANOMALY":"89.8580","DECAY_DATE":null,"EPOCH":"2023-03-26T20:29:27.822336","RCS_SIZE":"LARGE","TLE_LINE2":"2 55316  69.9976 242.6318 0003096 270.2261  89.8580 15.69932607 12102","ELEMENT_SET_NO":"999","MEAN_MOTION":"15.69932607","LAUNCH_DATE":"2023-01-19","MEAN_MOTION_DDOT":"0.0000000000000","COUNTRY_CODE":"US","SEMIMAJOR_AXIS":"6737.227","REF_FRAME":"TEME","APOAPSIS":"361.178","BSTAR":"0.00000701730000","RA_OF_ASC_NODE":"242.6318","ECCENTRICITY":"0.00030960","CLASSIFICATION_TYPE":"U","TIME_SYSTEM":"UTC","ARG_OF_PERICENTER":"270.2261","OBJECT_TYPE":"PAYLOAD","OBJECT_NAME":"STARLINK-5257","TLE_LINE1":"1 55316U 23010AZ  23085.85379424  .00000631  00000-0  70173-5 0  9999","NORAD_CAT_ID":"55316","INCLINATION":"69.9976","FILE":"3871964","PERIAPSIS":"357.006"},{"NORAD_CAT_ID":"55317","INCLINATION":"70.0007","PERIAPSIS":"356.768","FILE":"3871964","TIME_SYSTEM":"UTC","CLASSIFICATION_TYPE":"U","OBJECT_TYPE":"PAYLOAD","ARG_OF_PERICENTER":"271.2598","OBJECT_NAME":"STARLINK-5265","TLE_LINE1":"1 55317U 23010BA  23085.82390618  .00007555  00000-0  64519-4 0  9993","REF_FRAME":"TEME","SEMIMAJOR_AXIS":"6737.222","APOAPSIS":"361.405","BSTAR":"0.00006451900000","ECCENTRICITY":"0.00034410","RA_OF_ASC_NODE":"242.5172","TLE_LINE2":"2 55317  70.0007 242.5172 0003441 271.2598  88.8203 15.69934408 12108","ELEMENT_SET_NO":"999","MEAN_MOTION":"15.69934408","MEAN_MOTION_DDOT":"0.0000000000000","COUNTRY_CODE":"US","LAUNCH_DATE":"2023-01-19","SITE":"AFWTR","MEAN_ANOMALY":"88.8203","EPOCH":"2023-03-26T19:46:25.493952","DECAY_DATE":null,"RCS_SIZE":"LARGE","GP_ID":"228922109","REV_AT_EPOCH":"1210","PERIOD":"91.724","MEAN_ELEMENT_THEORY":"SGP4","EPHEMERIS_TYPE":"0","CENTER_NAME":"EARTH","MEAN_MOTION_DOT":"0.00007555","OBJECT_ID":"2023-010BA"},{"OBJECT_ID":"2023-010BB","MEAN_MOTION_DOT":"0.00014377","CENTER_NAME":"EARTH","EPHEMERIS_TYPE":"0","PERIOD":"91.725","MEAN_ELEMENT_THEORY":"SGP4","REV_AT_EPOCH":"1091","GP_ID":"228890538","RCS_SIZE":"LARGE","SITE":"AFWTR","MEAN_ANOMALY":"89.7391","DECAY_DATE":null,"EPOCH":"2023-03-26T19:46:07.719744","TLE_LINE2":"2 55318  70.0020 242.5168 0003292 270.3427  89.7391 15.69916756 10915","MEAN_MOTION":"15.69916756","ELEMENT_SET_NO":"999","LAUNCH_DATE":"2023-01-19","MEAN_MOTION_DDOT":"0.0000000000000","COUNTRY_CODE":"US","BSTAR":"0.00012117000000","RA_OF_ASC_NODE":"242.5168","ECCENTRICITY":"0.00032920","SEMIMAJOR_AXIS":"6737.272","REF_FRAME":"TEME","APOAPSIS":"361.355","ARG_OF_PERICENTER":"270.3427","OBJECT_TYPE":"PAYLOAD","OBJECT_NAME":"STARLINK-5180","TLE_LINE1":"1 55318U 23010BB  23085.82370046  .00014377  00000-0  12117-3 0  9993","TIME_SYSTEM":"UTC","CLASSIFICATION_TYPE":"U","INCLINATION":"70.0020","FILE":"3871758","PERIAPSIS":"356.919","NORAD_CAT_ID":"55318"},{"SITE":"AFWTR","MEAN_ANOMALY":"73.7107","DECAY_DATE":null,"EPOCH":"2023-03-26T19:45:59.626656","RCS_SIZE":"LARGE","GP_ID":"228920607","REV_AT_EPOCH":"1210","PERIOD":"91.725","MEAN_ELEMENT_THEORY":"SGP4","CENTER_NAME":"EARTH","EPHEMERIS_TYPE":"0","MEAN_MOTION_DOT":"-0.00009261","OBJECT_ID":"2023-010BC","NORAD_CAT_ID":"55319","INCLINATION":"70.0032","FILE":"3871964","PERIAPSIS":"356.819","CLASSIFICATION_TYPE":"U","TIME_SYSTEM":"UTC","ARG_OF_PERICENTER":"286.3703","OBJECT_TYPE":"PAYLOAD","TLE_LINE1":"1 55319U 23010BC  23085.82360679 -.00009261  00000-0 -75404-4 0  9992","OBJECT_NAME":"STARLINK-5196","REF_FRAME":"TEME","SEMIMAJOR_AXIS":"6737.314","APOAPSIS":"361.539","BSTAR":"-0.00007540400000","RA_OF_ASC_NODE":"242.5180","ECCENTRICITY":"0.00035030","MEAN_MOTION":"15.69902221","TLE_LINE2":"2 55319  70.0032 242.5180 0003503 286.3703  73.7107 15.69902221 12105","ELEMENT_SET_NO":"999","LAUNCH_DATE":"2023-01-19","MEAN_MOTION_DDOT":"0.0000000000000","COUNTRY_CODE":"US"},{"DECAY_DATE":null,"EPOCH":"2023-03-27T00:00:00.999648","SITE":"AFETR","MEAN_ANOMALY":"322.2889","RCS_SIZE":"LARGE","GP_ID":"228920608","REV_AT_EPOCH":"130","MEAN_ELEMENT_THEORY":"SGP4","PERIOD":"93.388","CENTER_NAME":"EARTH","EPHEMERIS_TYPE":"0","MEAN_MOTION_DOT":"-0.00943462","OBJECT_ID":"2023-013A","NORAD_CAT_ID":"55331","FILE":"3871964","PERIAPSIS":"439.583","INCLINATION":"43.0004","CLASSIFICATION_TYPE":"U","TIME_SYSTEM":"UTC","TLE_LINE1":"1 55331U 23013A   23086.00001157 -.00943462  00000-0 -23655-1 0  9991","OBJECT_NAME":"STARLINK-5492","ARG_OF_PERICENTER":"262.7896","OBJECT_TYPE":"PAYLOAD","APOAPSIS":"441.125","REF_FRAME":"TEME","SEMIMAJOR_AXIS":"6818.489","RA_OF_ASC_NODE":"45.6054","ECCENTRICITY":"0.00011310","BSTAR":"-0.02365500000000","LAUNCH_DATE":"2023-01-26","COUNTRY_CODE":"US","MEAN_MOTION_DDOT":"0.0000000000000","TLE_LINE2":"2 55331  43.0004  45.6054 0001131 262.7896 322.2889 15.41950972  1301","MEAN_MOTION":"15.41950972","ELEMENT_SET_NO":"999"},{"NORAD_CAT_ID":"55332","INCLINATION":"43.0028","FILE":"3871964","PERIAPSIS":"353.880","TIME_SYSTEM":"UTC","CLASSIFICATION_TYPE":"U","ARG_OF_PERICENTER":"268.7912","OBJECT_TYPE":"PAYLOAD","OBJECT_NAME":"STARLINK-5491","TLE_LINE1":"1 55332U 23013B   23085.94914192  .00002772  00000-0  24584-4 0  9999","REF_FRAME":"TEME","SEMIMAJOR_AXIS":"6733.167","APOAPSIS":"356.184","BSTAR":"0.00002458400000","ECCENTRICITY":"0.00017110","RA_OF_ASC_NODE":"43.0875","TLE_LINE2":"2 55332  43.0028  43.0875 0001711 268.7912  91.2760 15.71352703  9423","MEAN_MOTION":"15.71352703","ELEMENT_SET_NO":"999","COUNTRY_CODE":"US","MEAN_MOTION_DDOT":"0.0000000000000","LAUNCH_DATE":"2023-01-26","SITE":"AFETR","MEAN_ANOMALY":"91.2760","EPOCH":"2023-03-26T22:46:45.861888","DECAY_DATE":null,"RCS_SIZE":"LARGE","GP_ID":"228921860","REV_AT_EPOCH":"942","PERIOD":"91.641","MEAN_ELEMENT_THEORY":"SGP4","EPHEMERIS_TYPE":"0","CENTER_NAME":"EARTH","MEAN_MOTION_DOT":"0.00002772","OBJECT_ID":"2023-013B"},{"EPOCH":"2023-03-27T00:00:00.999648","DECAY_DATE":null,"SITE":"AFETR","MEAN_ANOMALY":"336.7886","RCS_SIZE":"LARGE","GP_ID":"228921610","REV_AT_EPOCH":"130","MEAN_ELEMENT_THEORY":"SGP4","PERIOD":"93.351","EPHEMERIS_TYPE":"0","CENTER_NAME":"EARTH","MEAN_MOTION_DOT":"-0.00941449","OBJECT_ID":"2023-013C","NORAD_CAT_ID":"55333","FILE":"3871964","PERIAPSIS":"437.789","INCLINATION":"43.0003","CLASSIFICATION_TYPE":"U","TIME_SYSTEM":"UTC","OBJECT_NAME":"STARLINK-5493","TLE_LINE1":"1 55333U 23013C   23086.00001157 -.00941449  00000-0 -23120-1 0  9993","ARG_OF_PERICENTER":"258.3770","OBJECT_TYPE":"PAYLOAD","APOAPSIS":"439.334","SEMIMAJOR_AXIS":"6816.697","REF_FRAME":"TEME","ECCENTRICITY":"0.00011330","RA_OF_ASC_NODE":"45.5808","BSTAR":"-0.02312000000000","MEAN_MOTION_DDOT":"0.0000000000000","COUNTRY_CODE":"US","LAUNCH_DATE":"2023-01-26","ELEMENT_SET_NO":"999","TLE_LINE2":"2 55333  43.0003  45.5808 0001133 258.3770 336.7886 15.42559120  1300","MEAN_MOTION":"15.42559120"},{"MEAN_MOTION_DOT":"-0.00720443","OBJECT_ID":"2023-013D","PERIOD":"92.816","MEAN_ELEMENT_THEORY":"SGP4","EPHEMERIS_TYPE":"0","CENTER_NAME":"EARTH","GP_ID":"228920859","REV_AT_EPOCH":"130","SITE":"AFETR","MEAN_ANOMALY":"264.5366","EPOCH":"2023-03-27T00:00:00.999648","DECAY_DATE":null,"RCS_SIZE":"LARGE","TLE_LINE2":"2 55334  43.0003  44.8494 0001317 268.4690 264.5366 15.51453456  1307","ELEMENT_SET_NO":"999","MEAN_MOTION":"15.51453456","COUNTRY_CODE":"US","MEAN_MOTION_DDOT":"0.0000000000000","LAUNCH_DATE":"2023-01-26","SEMIMAJOR_AXIS":"6790.619","REF_FRAME":"TEME","APOAPSIS":"413.378","BSTAR":"-0.01285300000000","ECCENTRICITY":"0.00013170","RA_OF_ASC_NODE":"44.8494","TIME_SYSTEM":"UTC","CLASSIFICATION_TYPE":"U","OBJECT_TYPE":"PAYLOAD","ARG_OF_PERICENTER":"268.4690","TLE_LINE1":"1 55334U 23013D   23086.00001157 -.00720443  00000-0 -12853-1 0  9994","OBJECT_NAME":"STARLINK-5652","NORAD_CAT_ID":"55334","INCLINATION":"43.0003","FILE":"3871964","PERIAPSIS":"411.589"}];
